{"type": "FeatureCollection", "features": [ {"type": "Feature", "properties": {"norad_id": 41335, "name": "SENTINEL-3A", "group": "resource", "lat": 7.227748846427111, "lon": -134.3003329383618, "alt_km": 804.4979119859099, "timestamp": "2025-12-05T11:32:55.683775+00:00", "meta": {"OBJECT_NAME": "SENTINEL-3A", "OBJECT_ID": "2016-011A", "EPOCH": "2025-12-04T16:13:42.256992", "MEAN_MOTION": 14.26741907, "ECCENTRICITY": 9.77e-05, "INCLINATION": 98.6218, "RA_OF_ASC_NODE": 43.8042, "ARG_OF_PERICENTER": 91.378, "MEAN_ANOMALY": 268.7513, "EPHEMERIS_TYPE": 0, "CLASSIFICATION_TYPE": "U", "NORAD_CAT_ID": 41335, "ELEMENT_SET_NO": 999, "REV_AT_EPOCH": 51032, "BSTAR": 0.0001486, "MEAN_MOTION_DOT": 3.16e-06, "MEAN_MOTION_DDOT": 0}, "tle": {"line1": "1 41335U 16011A   25338.67618353  .00000316  00000+0  14860-3 0  9996", "line2": "2 41335  98.6218  43.8042 0000977  91.3780 268.7513 14.26741907510328"}}, "geometry": {"type": "Point", "coordinates": [-134.3003329383618, 7.227748846427111]}}, {"type": "Feature", "properties": {"norad_id": 41556, "name": "ZIYUAN 3-2 (ZY 3-2)", "group": "resource", "lat": -25.40905502542219, "lon": 57.31061577684965, "alt_km": 502.7803937281624, "timestamp": "2025-12-05T11:32:55.683786+00:00", "meta": {"OBJECT_NAME": "ZIYUAN 3-2 (ZY 3-2)", "OBJECT_ID": "2016-033A", "EPOCH": "2025-12-04T18:17:48.832800", "MEAN_MOTION": 15.2132571, "ECCENTRICITY": 0.0012451, "INCLINATION": 97.4059, "RA_OF_ASC_NODE": 53.0611, "ARG_OF_PERICENTER": 280.2561, "MEAN_ANOMALY": 79.727, "EPHEMERIS_TYPE": 0, "CLASSIFICATION_TYPE": "U", "NORAD_CAT_ID": 41556, "ELEMENT_SET_NO": 999, "REV_AT_EPOCH": 52842, "BSTAR": 0.00070496, "MEAN_MOTION_DOT": 0.00015765, "MEAN_MOTION_DDOT": 0}, "tle": {"line1": "1 41556U 16033A   25338.76237075  .00015765  00000+0  70496-3 0  9994", "line2": "2 41556  97.4059  53.0611 0012451 280.2561  79.7270 15.21325710528420"}}, "geometry": {"type": "Point", "coordinates": [57.31061577684965, -25.40905502542219]}}, {"type": "Feature", "properties": {"norad_id": 41599, "name": "CARTOSAT-2C", "group": "resource", "lat": -24.80297242026747, "lon": 40.286785475381, "alt_km": 516.7194598792503, "timestamp": "2025-12-05T11:32:55.683796+00:00", "meta": {"OBJECT_NAME": "CARTOSAT-2C", "OBJECT_ID": "2016-040A", "EPOCH": "2025-12-04T18:16:12.292896", "MEAN_MOTION": 15.1918306, "ECCENTRICITY": 0.0011051, "INCLINATION": 97.4782, "RA_OF_ASC_NODE": 36.0939, "ARG_OF_PERICENTER": 89.4186, "MEAN_ANOMALY": 270.8314, "EPHEMERIS_TYPE": 0, "CLASSIFICATION_TYPE": "U", "NORAD_CAT_ID": 41599, "ELEMENT_SET_NO": 999, "REV_AT_EPOCH": 52419, "BSTAR": 0.00082852, "MEAN_MOTION_DOT": 0.00017415, "MEAN_MOTION_DDOT": 0}, "tle": {"line1": "1 41599U 16040A   25338.76125339  .00017415  00000+0  82852-3 0  9991", "line2": "2 41599  97.4782  36.0939 0011051  89.4186 270.8314 15.19183060524191"}}, "geometry": {"type": "Point", "coordinates": [40.286785475381, -24.80297242026747]}}, {"type": "Feature", "properties": {"norad_id": 41601, "name": "SKYSAT-C1", "group": "resource", "lat": 44.465194464710635, "lon": 9.995749779415313, "alt_km": 462.8188504155214, "timestamp": "2025-12-05T11:32:55.683807+00:00", "meta": {"OBJECT_NAME": "SKYSAT-C1", "OBJECT_ID": "2016-040C", "EPOCH": "2025-12-04T16:32:49.870176", "MEAN_MOTION": 15.32368766, "ECCENTRICITY": 0.0003198, "INCLINATION": 96.9832, "RA_OF_ASC_NODE": 16.1585, "ARG_OF_PERICENTER": 35.658, "MEAN_ANOMALY": 324.4876, "EPHEMERIS_TYPE": 0, "CLASSIFICATION_TYPE": "U", "NORAD_CAT_ID": 41601, "ELEMENT_SET_NO": 999, "REV_AT_EPOCH": 52804, "BSTAR": 0.00060167, "MEAN_MOTION_DOT": 0.00018759, "MEAN_MOTION_DDOT": 0}, "tle": {"line1": "1 41601U 16040C   25338.68946609  .00018759  00000+0  60167-3 0  9994", "line2": "2 41601  96.9832  16.1585 0003198  35.6580 324.4876 15.32368766528045"}}, "geometry": {"type": "Point", "coordinates": [9.995749779415313, 44.465194464710635]}}, {"type": "Feature", "properties": {"norad_id": 41603, "name": "LAPAN-A3", "group": "resource", "lat": -33.98428336836101, "lon": 152.45353005024754, "alt_km": 483.8379931995796, "timestamp": "2025-12-05T11:32:55.683817+00:00", "meta": {"OBJECT_NAME": "LAPAN-A3", "OBJECT_ID": "2016-040E", "EPOCH": "2025-12-04T18:56:04.639776", "MEAN_MOTION": 15.31454935, "ECCENTRICITY": 0.0010669, "INCLINATION": 97.142, "RA_OF_ASC_NODE": 336.6353, "ARG_OF_PERICENTER": 3.3342, "MEAN_ANOMALY": 356.797, "EPHEMERIS_TYPE": 0, "CLASSIFICATION_TYPE": "U", "NORAD_CAT_ID": 41603, "ELEMENT_SET_NO": 999, "REV_AT_EPOCH": 52504, "BSTAR": 0.0002488, "MEAN_MOTION_DOT": 7.497e-05, "MEAN_MOTION_DDOT": 0}, "tle": {"line1": "1 41603U 16040E   25338.78894259  .00007497  00000+0  24880-3 0  9999", "line2": "2 41603  97.1420 336.6353 0010669   3.3342 356.7970 15.31454935525048"}}, "geometry": {"type": "Point", "coordinates": [152.45353005024754, -33.98428336836101]}}, {"type": "Feature", "properties": {"norad_id": 41604, "name": "BIROS", "group": "resource", "lat": -1.3637112425562614, "lon": 10.809164510197938, "alt_km": 316.59863848594796, "timestamp": "2025-12-05T11:32:55.683827+00:00", "meta": {"OBJECT_NAME": "BIROS", "OBJECT_ID": "2016-040F", "EPOCH": "2025-12-04T14:21:45.694656", "MEAN_MOTION": 15.86388554, "ECCENTRICITY": 0.0002893, "INCLINATION": 97.0693, "RA_OF_ASC_NODE": 9.7256, "ARG_OF_PERICENTER": 168.0467, "MEAN_ANOMALY": 192.0874, "EPHEMERIS_TYPE": 0, "CLASSIFICATION_TYPE": "U", "NORAD_CAT_ID": 41604, "ELEMENT_SET_NO": 999, "REV_AT_EPOCH": 52743, "BSTAR": 0.00092982, "MEAN_MOTION_DOT": 0.00237554, "MEAN_MOTION_DDOT": 0}, "tle": {"line1": "1 41604U 16040F   25338.59844554  .00237554  00000+0  92982-3 0  9999", "line2": "2 41604  97.0693   9.7256 0002893 168.0467 192.0874 15.86388554527439"}}, "geometry": {"type": "Point", "coordinates": [10.809164510197938, -1.3637112425562614]}}, {"type": "Feature", "properties": {"norad_id": 41727, "name": "GAOFEN-3", "group": "resource", "lat": 18.919226359525872, "lon": 168.0825621623889, "alt_km": 751.4308466391003, "timestamp": "2025-12-05T11:32:55.683838+00:00", "meta": {"OBJECT_NAME": "GAOFEN-3", "OBJECT_ID": "2016-049A", "EPOCH": "2025-12-04T18:09:18.652032", "MEAN_MOTION": 14.42210005, "ECCENTRICITY": 0.0001582, "INCLINATION": 98.4041, "RA_OF_ASC_NODE": 344.4644, "ARG_OF_PERICENTER": 71.9041, "MEAN_ANOMALY": 288.2321, "EPHEMERIS_TYPE": 0, "CLASSIFICATION_TYPE": "U", "NORAD_CAT_ID": 41727, "ELEMENT_SET_NO": 999, "REV_AT_EPOCH": 49062, "BSTAR": 2.8387e-06, "MEAN_MOTION_DOT": -3.4e-07, "MEAN_MOTION_DDOT": 0}, "tle": {"line1": "1 41727U 16049A   25338.75646588 -.00000034  00000+0  28387-5 0  9991", "line2": "2 41727  98.4041 344.4644 0001582  71.9041 288.2321 14.42210005490622"}}, "geometry": {"type": "Point", "coordinates": [168.0825621623889, 18.919226359525872]}}, {"type": "Feature", "properties": {"norad_id": 41771, "name": "SKYSAT-C4", "group": "resource", "lat": 83.04845444609859, "lon": -82.05237899317838, "alt_km": 432.40718946441666, "timestamp": "2025-12-05T11:32:55.683848+00:00", "meta": {"OBJECT_NAME": "SKYSAT-C4", "OBJECT_ID": "2016-058B", "EPOCH": "2025-12-04T14:54:49.524192", "MEAN_MOTION": 15.41902594, "ECCENTRICITY": 7.87e-05, "INCLINATION": 96.9377, "RA_OF_ASC_NODE": 4.2062, "ARG_OF_PERICENTER": 123.0902, "MEAN_ANOMALY": 237.0422, "EPHEMERIS_TYPE": 0, "CLASSIFICATION_TYPE": "U", "NORAD_CAT_ID": 41771, "ELEMENT_SET_NO": 999, "REV_AT_EPOCH": 51542, "BSTAR": 0.0006825, "MEAN_MOTION_DOT": 0.00028987, "MEAN_MOTION_DDOT": 0}, "tle": {"line1": "1 41771U 16058B   25338.62140653  .00028987  00000+0  68250-3 0  9995", "line2": "2 41771  96.9377   4.2062 0000787 123.0902 237.0422 15.41902594515423"}}, "geometry": {"type": "Point", "coordinates": [-82.05237899317838, 83.04845444609859]}}, {"type": "Feature", "properties": {"norad_id": 41772, "name": "SKYSAT-C5", "group": "resource", "lat": -1.7343383188090338, "lon": -156.69490981901632, "alt_km": 461.0351242255374, "timestamp": "2025-12-05T11:32:55.683863+00:00", "meta": {"OBJECT_NAME": "SKYSAT-C5", "OBJECT_ID": "2016-058C", "EPOCH": "2025-12-04T01:55:03.025632", "MEAN_MOTION": 15.35427331, "ECCENTRICITY": 0.0002903, "INCLINATION": 97.0762, "RA_OF_ASC_NODE": 22.1744, "ARG_OF_PERICENTER": 128.7771, "MEAN_ANOMALY": 231.3733, "EPHEMERIS_TYPE": 0, "CLASSIFICATION_TYPE": "U", "NORAD_CAT_ID": 41772, "ELEMENT_SET_NO": 999, "REV_AT_EPOCH": 51383, "BSTAR": 0.0030293, "MEAN_MOTION_DOT": 0.00105512, "MEAN_MOTION_DDOT": 0}, "tle": {"line1": "1 41772U 16058C   25338.07989613  .00105512  00000+0  30293-2 0  9997", "line2": "2 41772  97.0762  22.1744 0002903 128.7771 231.3733 15.35427331513837"}}, "geometry": {"type": "Point", "coordinates": [-156.69490981901632, -1.7343383188090338]}}, {"type": "Feature", "properties": {"norad_id": 41773, "name": "SKYSAT-C2", "group": "resource", "lat": 36.15037521421675, "lon": -170.5055055655892, "alt_km": 452.56296998968264, "timestamp": "2025-12-05T11:32:55.683874+00:00", "meta": {"OBJECT_NAME": "SKYSAT-C2", "OBJECT_ID": "2016-058D", "EPOCH": "2025-12-04T14:36:53.477856", "MEAN_MOTION": 15.36993791, "ECCENTRICITY": 0.0005005, "INCLINATION": 97.0364, "RA_OF_ASC_NODE": 3.4822, "ARG_OF_PERICENTER": 55.1675, "MEAN_ANOMALY": 305.004, "EPHEMERIS_TYPE": 0, "CLASSIFICATION_TYPE": "U", "NORAD_CAT_ID": 41773, "ELEMENT_SET_NO": 999, "REV_AT_EPOCH": 51511, "BSTAR": 0.00064095, "MEAN_MOTION_DOT": 0.00023167, "MEAN_MOTION_DDOT": 0}, "tle": {"line1": "1 41773U 16058D   25338.60895229  .00023167  00000+0  64095-3 0  9999", "line2": "2 41773  97.0364   3.4822 0005005  55.1675 305.0040 15.36993791515119"}}, "geometry": {"type": "Point", "coordinates": [-170.5055055655892, 36.15037521421675]}}]}